{"type": "FeatureCollection", "features": [ {"type": "Feature", "properties": {"norad_id": 30342, "name": "FENGYUN 1C DEB", "group": "fengyun-1c-debris", "lat": -55.23998076047267, "lon": -39.75821077230984, "alt_km": 963.9208597606612, "timestamp": "2025-12-02T13:52:17.537899+00:00", "meta": {"OBJECT_NAME": "FENGYUN 1C DEB", "OBJECT_ID": "1999-025ABD", "EPOCH": "2025-12-02T06:37:06.178944", "MEAN_MOTION": 13.80018289, "ECCENTRICITY": 0.01683456, "INCLINATION": 100.1958, "RA_OF_ASC_NODE": 154.946, "ARG_OF_PERICENTER": 149.5028, "MEAN_ANOMALY": 24.444, "EPHEMERIS_TYPE": 0, "CLASSIFICATION_TYPE": "U", "NORAD_CAT_ID": 30342, "ELEMENT_SET_NO": 999, "REV_AT_EPOCH": 94744, "BSTAR": 0.00088874301, "MEAN_MOTION_DOT": 9.77e-06, "MEAN_MOTION_DDOT": 0}, "tle": {"line1": "1 30342U 99025ABD 25336.27576596  .00000977  00000+0  88874-3 0  9993", "line2": "2 30342 100.1958 154.9460 0168345 149.5028  24.4440 13.80018289947449"}}, "geometry": {"type": "Point", "coordinates": [-39.75821077230984, -55.23998076047267]}}, {"type": "Feature", "properties": {"norad_id": 30344, "name": "FENGYUN 1C DEB", "group": "fengyun-1c-debris", "lat": -47.896550025503274, "lon": -131.75806935133124, "alt_km": 726.7486894854292, "timestamp": "2025-12-02T13:52:17.537910+00:00", "meta": {"OBJECT_NAME": "FENGYUN 1C DEB", "OBJECT_ID": "1999-025ABF", "EPOCH": "2025-12-02T04:47:58.286688", "MEAN_MOTION": 14.51408249, "ECCENTRICITY": 0.00085073, "INCLINATION": 98.8213, "RA_OF_ASC_NODE": 57.7405, "ARG_OF_PERICENTER": 149.9364, "MEAN_ANOMALY": 264.6015, "EPHEMERIS_TYPE": 0, "CLASSIFICATION_TYPE": "U", "NORAD_CAT_ID": 30344, "ELEMENT_SET_NO": 999, "REV_AT_EPOCH": 97924, "BSTAR": 0.0029273726, "MEAN_MOTION_DOT": 0.00011654, "MEAN_MOTION_DDOT": 0}, "tle": {"line1": "1 30344U 99025ABF 25336.19998017  .00011654  00000+0  29274-2 0  9994", "line2": "2 30344  98.8213  57.7405 0008507 149.9364 264.6015 14.51408249979244"}}, "geometry": {"type": "Point", "coordinates": [-131.75806935133124, -47.896550025503274]}}, {"type": "Feature", "properties": {"norad_id": 30345, "name": "FENGYUN 1C DEB", "group": "fengyun-1c-debris", "lat": -75.76883532192637, "lon": 73.77992453293336, "alt_km": 749.489374605123, "timestamp": "2025-12-02T13:52:17.537920+00:00", "meta": {"OBJECT_NAME": "FENGYUN 1C DEB", "OBJECT_ID": "1999-025ABG", "EPOCH": "2025-12-02T02:34:28.313760", "MEAN_MOTION": 14.41431967, "ECCENTRICITY": 0.00164109, "INCLINATION": 98.923, "RA_OF_ASC_NODE": 35.011, "ARG_OF_PERICENTER": 273.2619, "MEAN_ANOMALY": 86.6691, "EPHEMERIS_TYPE": 0, "CLASSIFICATION_TYPE": "U", "NORAD_CAT_ID": 30345, "ELEMENT_SET_NO": 999, "REV_AT_EPOCH": 97620, "BSTAR": 0.0023784283, "MEAN_MOTION_DOT": 7.685e-05, "MEAN_MOTION_DDOT": 0}, "tle": {"line1": "1 30345U 99025ABG 25336.10727215  .00007685  00000+0  23784-2 0  9995", "line2": "2 30345  98.9230  35.0110 0016410 273.2619  86.6691 14.41431967976200"}}, "geometry": {"type": "Point", "coordinates": [73.77992453293336, -75.76883532192637]}}, {"type": "Feature", "properties": {"norad_id": 30346, "name": "FENGYUN 1C DEB", "group": "fengyun-1c-debris", "lat": -79.39828126301157, "lon": 129.04289031124668, "alt_km": 816.669276064411, "timestamp": "2025-12-02T13:52:17.537929+00:00", "meta": {"OBJECT_NAME": "FENGYUN 1C DEB", "OBJECT_ID": "1999-025ABH", "EPOCH": "2025-12-02T06:08:21.393888", "MEAN_MOTION": 14.33707407, "ECCENTRICITY": 0.00559426, "INCLINATION": 98.8093, "RA_OF_ASC_NODE": 72.7705, "ARG_OF_PERICENTER": 55.5978, "MEAN_ANOMALY": 358.827, "EPHEMERIS_TYPE": 0, "CLASSIFICATION_TYPE": "U", "NORAD_CAT_ID": 30346, "ELEMENT_SET_NO": 999, "REV_AT_EPOCH": 97263, "BSTAR": 0.0024011279, "MEAN_MOTION_DOT": 6.743e-05, "MEAN_MOTION_DDOT": 0}, "tle": {"line1": "1 30346U 99025ABH 25336.25580317  .00006743  00000+0  24011-2 0  9990", "line2": "2 30346  98.8093  72.7705 0055942  55.5978 358.8270 14.33707407972633"}}, "geometry": {"type": "Point", "coordinates": [129.04289031124668, -79.39828126301157]}}, {"type": "Feature", "properties": {"norad_id": 30347, "name": "FENGYUN 1C DEB", "group": "fengyun-1c-debris", "lat": 5.818810546264949, "lon": 160.55216770043722, "alt_km": 858.0950623021554, "timestamp": "2025-12-02T13:52:17.537940+00:00", "meta": {"OBJECT_NAME": "FENGYUN 1C DEB", "OBJECT_ID": "1999-025ABJ", "EPOCH": "2025-12-02T02:20:55.276800", "MEAN_MOTION": 13.92761187, "ECCENTRICITY": 0.01509372, "INCLINATION": 98.3772, "RA_OF_ASC_NODE": 160.9779, "ARG_OF_PERICENTER": 63.1794, "MEAN_ANOMALY": 58.2879, "EPHEMERIS_TYPE": 0, "CLASSIFICATION_TYPE": "U", "NORAD_CAT_ID": 30347, "ELEMENT_SET_NO": 999, "REV_AT_EPOCH": 95812, "BSTAR": 0.00017554482, "MEAN_MOTION_DOT": 2.12e-06, "MEAN_MOTION_DDOT": 0}, "tle": {"line1": "1 30347U 99025ABJ 25336.09786200  .00000212  00000+0  17554-3 0  9992", "line2": "2 30347  98.3772 160.9779 0150937  63.1794  58.2879 13.92761187958128"}}, "geometry": {"type": "Point", "coordinates": [160.55216770043722, 5.818810546264949]}}, {"type": "Feature", "properties": {"norad_id": 30348, "name": "FENGYUN 1C DEB", "group": "fengyun-1c-debris", "lat": 14.19697112057445, "lon": -106.67205129644607, "alt_km": 781.7470013301681, "timestamp": "2025-12-02T13:52:17.537950+00:00", "meta": {"OBJECT_NAME": "FENGYUN 1C DEB", "OBJECT_ID": "1999-025ABK", "EPOCH": "2025-12-02T05:00:16.487424", "MEAN_MOTION": 14.34906052, "ECCENTRICITY": 0.0017778, "INCLINATION": 98.8641, "RA_OF_ASC_NODE": 70.6863, "ARG_OF_PERICENTER": 51.015, "MEAN_ANOMALY": 6.9111, "EPHEMERIS_TYPE": 0, "CLASSIFICATION_TYPE": "U", "NORAD_CAT_ID": 30348, "ELEMENT_SET_NO": 999, "REV_AT_EPOCH": 97383, "BSTAR": 0.0024684079, "MEAN_MOTION_DOT": 6.989e-05, "MEAN_MOTION_DDOT": 0}, "tle": {"line1": "1 30348U 99025ABK 25336.20852416  .00006989  00000+0  24684-2 0  9997", "line2": "2 30348  98.8641  70.6863 0017778  51.0150   6.9111 14.34906052973830"}}, "geometry": {"type": "Point", "coordinates": [-106.67205129644607, 14.19697112057445]}}, {"type": "Feature", "properties": {"norad_id": 30349, "name": "FENGYUN 1C DEB", "group": "fengyun-1c-debris", "lat": -61.37712250750325, "lon": -44.464602932237504, "alt_km": 877.4207435474591, "timestamp": "2025-12-02T13:52:17.537960+00:00", "meta": {"OBJECT_NAME": "FENGYUN 1C DEB", "OBJECT_ID": "1999-025ABL", "EPOCH": "2025-12-01T21:24:09.590688", "MEAN_MOTION": 14.10966435, "ECCENTRICITY": 0.00895778, "INCLINATION": 98.5833, "RA_OF_ASC_NODE": 298.8132, "ARG_OF_PERICENTER": 42.6142, "MEAN_ANOMALY": 12.2472, "EPHEMERIS_TYPE": 0, "CLASSIFICATION_TYPE": "U", "NORAD_CAT_ID": 30349, "ELEMENT_SET_NO": 999, "REV_AT_EPOCH": 96078, "BSTAR": 0.0023316147, "MEAN_MOTION_DOT": 4.308e-05, "MEAN_MOTION_DDOT": 0}, "tle": {"line1": "1 30349U 99025ABL 25335.89177767  .00004308  00000+0  23316-2 0  9995", "line2": "2 30349  98.5833 298.8132 0089577  42.6142  12.2472 14.10966435960782"}}, "geometry": {"type": "Point", "coordinates": [-44.464602932237504, -61.37712250750325]}}, {"type": "Feature", "properties": {"norad_id": 30350, "name": "FENGYUN 1C DEB", "group": "fengyun-1c-debris", "lat": -7.464057524028269, "lon": -24.708538759560692, "alt_km": 1095.4304435133827, "timestamp": "2025-12-02T13:52:17.537970+00:00", "meta": {"OBJECT_NAME": "FENGYUN 1C DEB", "OBJECT_ID": "1999-025ABM", "EPOCH": "2025-12-02T06:52:24.470976", "MEAN_MOTION": 13.8278359, "ECCENTRICITY": 0.02195541, "INCLINATION": 98.0929, "RA_OF_ASC_NODE": 156.1086, "ARG_OF_PERICENTER": 337.5899, "MEAN_ANOMALY": 200.4156, "EPHEMERIS_TYPE": 0, "CLASSIFICATION_TYPE": "U", "NORAD_CAT_ID": 30350, "ELEMENT_SET_NO": 999, "REV_AT_EPOCH": 94837, "BSTAR": 0.00083500062, "MEAN_MOTION_DOT": 1.057e-05, "MEAN_MOTION_DDOT": 0}, "tle": {"line1": "1 30350U 99025ABM 25336.28639434  .00001057  00000+0  83500-3 0  9995", "line2": "2 30350  98.0929 156.1086 0219554 337.5899 200.4156 13.82783590948372"}}, "geometry": {"type": "Point", "coordinates": [-24.708538759560692, -7.464057524028269]}}, {"type": "Feature", "properties": {"norad_id": 30352, "name": "FENGYUN 1C DEB", "group": "fengyun-1c-debris", "lat": -80.1332486877789, "lon": 60.46283541296034, "alt_km": 869.2846962088006, "timestamp": "2025-12-02T13:52:17.537980+00:00", "meta": {"OBJECT_NAME": "FENGYUN 1C DEB", "OBJECT_ID": "1999-025ABP", "EPOCH": "2025-12-02T07:32:58.725312", "MEAN_MOTION": 14.07572549, "ECCENTRICITY": 0.00282586, "INCLINATION": 98.7652, "RA_OF_ASC_NODE": 357.7033, "ARG_OF_PERICENTER": 349.1985, "MEAN_ANOMALY": 31.624, "EPHEMERIS_TYPE": 0, "CLASSIFICATION_TYPE": "U", "NORAD_CAT_ID": 30352, "ELEMENT_SET_NO": 999, "REV_AT_EPOCH": 96764, "BSTAR": 0.00018866045, "MEAN_MOTION_DOT": 2.77e-06, "MEAN_MOTION_DDOT": 0}, "tle": {"line1": "1 30352U 99025ABP 25336.31456858  .00000277  00000+0  18866-3 0  9994", "line2": "2 30352  98.7652 357.7033 0028258 349.1985  31.6240 14.07572549967646"}}, "geometry": {"type": "Point", "coordinates": [60.46283541296034, -80.1332486877789]}}, {"type": "Feature", "properties": {"norad_id": 30355, "name": "FENGYUN 1C DEB", "group": "fengyun-1c-debris", "lat": -34.9781818594905, "lon": 155.17742931342943, "alt_km": 857.0214836982987, "timestamp": "2025-12-02T13:52:17.537991+00:00", "meta": {"OBJECT_NAME": "FENGYUN 1C DEB", "OBJECT_ID": "1999-025ABS", "EPOCH": "2025-12-02T06:09:21.188736", "MEAN_MOTION": 14.18773726, "ECCENTRICITY": 0.00535622, "INCLINATION": 98.5889, "RA_OF_ASC_NODE": 340.9358, "ARG_OF_PERICENTER": 340.0272, "MEAN_ANOMALY": 34.7296, "EPHEMERIS_TYPE": 0, "CLASSIFICATION_TYPE": "U", "NORAD_CAT_ID": 30355, "ELEMENT_SET_NO": 999, "REV_AT_EPOCH": 97202, "BSTAR": 0.00084804618, "MEAN_MOTION_DOT": 1.745e-05, "MEAN_MOTION_DDOT": 0}, "tle": {"line1": "1 30355U 99025ABS 25336.25649524  .00001745  00000+0  84805-3 0  9991", "line2": "2 30355  98.5889 340.9358 0053562 340.0272  34.7296 14.18773726972023"}}, "geometry": {"type": "Point", "coordinates": [155.17742931342943, -34.9781818594905]}}]}